IRIDIUM 166             
1 43570U 18061B   24021.53729603  .00000123  00000+0  37030-4 0  9991
2 43570  86.3937  63.5251 0001865  88.1601 271.9808 14.34217417287605
IRIDIUM 158             
1 43571U 18061C   24020.66835665  .00000493  00000+0  16903-3 0  9996
2 43571  86.3937  63.8979 0001973  98.4697 261.6723 14.34216725287440
IRIDIUM 165             
1 43572U 18061D   24021.18210679  .00000422  00000+0  14359-3 0  9992
2 43572  86.3939  63.7123 0001877  97.2449 262.8960 14.34214683287546
IRIDIUM 155             
1 43573U 18061E   24020.65567643  .00000372  00000+0  12573-3 0  9990
2 43573  86.3935  63.8455 0002223  87.8710 272.2740 14.34216499287430
IRIDIUM 154             
1 43574U 18061F   24020.91572134  .00000464  00000+0  15858-3 0  9992
2 43574  86.3937  63.8272 0002409  96.6518 263.4952 14.34219001287529
IRIDIUM 163             
1 43575U 18061G   24020.61761865  .00000400  00000+0  13576-3 0  9996
2 43575  86.3937  63.8947 0002280  94.2607 265.8849 14.34216466287454
IRIDIUM 156             
1 43576U 18061H   24021.49923631  .00000075  00000+0  19874-4 0  9991
2 43576  86.3938  63.5320 0001954  94.2938 265.8481 14.34215678287560
IRIDIUM 164             
1 43577U 18061J   24020.64298452  .00000420  00000+0  14293-3 0  9997
2 43577  86.3940  63.9161 0002063  93.8303 266.3129 14.34216243287490
